[{"OBJECT_NAME":"STARLINK-3814","OBJECT_ID":"2022-045E","EPOCH":"2026-03-09T16:57:12.384576","MEAN_MOTION":15.08855962,"ECCENTRICITY":0.00013385,"INCLINATION":53.2183,"RA_OF_ASC_NODE":209.0449,"ARG_OF_PERICENTER":67.7839,"MEAN_ANOMALY":292.3295,"EPHEMERIS_TYPE":0,"CLASSIFICATION_TYPE":"U","NORAD_CAT_ID":52335,"ELEMENT_SET_NO":999,"REV_AT_EPOCH":21564,"BSTAR":0.00014923953,"MEAN_MOTION_DOT":2.089e-5,"MEAN_MOTION_DDOT":0},{"OBJECT_NAME":"KUIPER-00148","OBJECT_ID":"2025-217H","EPOCH":"2026-03-09T06:36:19.446048","MEAN_MOTION":15.09536529,"ECCENTRICITY":0.00081087,"INCLINATION":51.8794,"RA_OF_ASC_NODE":26.5769,"ARG_OF_PERICENTER":351.8096,"MEAN_ANOMALY":8.2745,"EPHEMERIS_TYPE":0,"CLASSIFICATION_TYPE":"U","NORAD_CAT_ID":65769,"ELEMENT_SET_NO":999,"REV_AT_EPOCH":2507,"BSTAR":0.00098730243,"MEAN_MOTION_DOT":0.00015783,"MEAN_MOTION_DDOT":0}]
