STARLINK-3814           
1 52335U 22045E   26068.70639333  .00002089  00000+0  14924-3 0  9998
2 52335  53.2183 209.0449 0001339  67.7839 292.3295 15.08855962215645
KUIPER-00148            
1 65769U 25217H   26068.27522507  .00015783  00000+0  98730-3 0  9995
2 65769  51.8794  26.5769 0008108 351.8096   8.2745 15.09536529 25078
